MONITOR-2 (RS39S)       
1 57184U 23091U   26133.85416419  .00003079  00000+0  15211-3 0  9994
2 57184  97.5098 192.3635 0010122 225.9041 134.1361 15.18578367158748
SVYATOBOR 1 (RS60S)     
1 57187U 23091X   26133.83686381  .00005708  00000+0  22464-3 0  9991
2 57187  97.5112 197.4770 0009023 203.9014 156.1806 15.26005378159079
HORS 1                  
1 57188U 23091Y   26133.82465988  .00006020  00000+0  23610-3 0  9991
2 57188  97.5092 197.2316 0008519 203.2911 156.7942 15.26101362159076
VIZARD-METEO (RS38S)    
1 57189U 23091Z   26133.86795284  .00011053  00000+0  32864-3 0  9994
2 57189  97.5111 202.6937 0007738 181.8069 178.3147 15.34897409159425
SITRO-AIS 6 (CHIRKIN)   
1 57192U 23091AC  26133.81008308  .00003718  00000+0  15062-3 0  9997
2 57192  97.5090 196.6985 0010947 220.1831 139.8598 15.25256289159045
SITRO-AIS 8 (ANOKHIN)   
1 57193U 23091AD  26133.85311630  .00008658  00000+0  28970-3 0  9997
2 57193  97.5079 198.8981 0010115 211.5083 148.5553 15.31171890159198
SITRO-AIS 7 (FARTUSHNIY)
1 57194U 23091AE  26133.87200633  .00003637  00000+0  14868-3 0  9993
2 57194  97.5087 196.6030 0010770 221.1008 138.9419 15.24962606159043
AVION KALUGA 650        
1 57195U 23091AF  26133.86739057  .00003444  00000+0  16312-3 0  9992
2 57195  97.5114 193.5887 0009374 223.0690 136.9813 15.19972794158810
HORS 2                  
1 57196U 23091AG  26133.86005424  .00009204  00000+0  30970-3 0  9993
2 57196  97.5110 200.4435 0008133 194.0641 166.0374 15.30987251159273
A-SEANSAT-PG1           
1 57197U 23091AH  26133.81620244  .00011919  00000+0  34496-3 0  9995
2 57197  97.5101 202.6954 0007523 189.8298 170.2799 15.35727826159437
SITRO-AIS 10 (BURDAEV)  
1 57199U 23091AK  26133.82953197  .00012668  00000+0  34883-3 0  9996
2 57199  97.5101 203.5851 0007134 183.2151 176.9049 15.37270244159484
SITRO-AIS 9 (SHCHUKIN)  
1 57201U 23091AM  26133.84548512  .00012917  00000+0  36081-3 0  9992
2 57201  97.5099 203.3573 0007331 183.9503 176.1684 15.36818807159478
UTMN 2 (RS27S)          
1 57203U 23091AP  26133.82591759  .00008289  00000+0  27760-3 0  9994
2 57203  97.5108 200.5918 0008151 189.9635 170.1445 15.31175699159284
SITRO-AIS 12 (SMIRENNIY)
1 57204U 23091AQ  26133.84252046  .00012851  00000+0  35574-3 0  9992
2 57204  97.5111 203.8002 0007139 177.8865 182.2410 15.37103409159490
SITRO-AIS 11 (SHEFFER)  
1 57208U 23091AU  26133.86505722  .00013501  00000+0  36890-3 0  9995
2 57208  97.5110 204.0489 0007075 177.5689 182.5590 15.37495376159517
H2SAT (HEINRICH HERTZ)  
1 57213U 23093A   26133.03567338  .00000000  00000+0  00000+0 0  9993
2 57213   0.0126 253.6510 0000667 239.0446 111.6410  1.00269416 10563
KUZGTU 1 (RS47S)        
1 57217U 23091AV  26133.81627625  .00007536  00000+0  26957-3 0  9991
2 57217  97.5087 197.9653 0010538 209.9767 150.0870 15.29043364159123
QIANKUN-1               
1 57422U 23103B   26133.50150046  .00110894  71429-5  13180-3 0  9992
2 57422  96.1623 180.7418 0027330 120.8761 239.5218 16.07700021161729
FENGYUN 3F              
1 57490U 23111A   26133.86893995  .00000017  00000+0  28571-4 0  9999
2 57490  98.6843 204.5145 0001247 114.4388 245.6918 14.19932776143999
HJ-2F                   
1 57519U 23116A   26133.86898243  .00004530  00000+0  20232-3 0  9996
2 57519  97.3850 139.6991 0009622 151.3517 208.8249 15.21817285153531
XRISM                   
1 57800U 23137A   26133.60565447  .00002954  00000+0  16151-3 0  9994
2 57800  31.0019 223.5537 0007662 334.9283  25.0983 15.12166514147625
METEOR-M2 4             
1 59051U 24039A   26133.85647870 -.00000011  00000+0  14717-4 0  9994
2 59051  98.6992  93.5905 0005912 270.1718  89.8782 14.22425899114384
GRBBETA                 
1 60237U 24128C   26132.97496547  .00002703  00000+0  19346-3 0  9997
2 60237  61.9907 339.7812 0045302 127.3925 233.1305 15.06341838100960
TRANSPORTER-11 OBJECT A 
1 60468U 24149A   26133.15758403  .00005674  00000+0  18431-3 0  9993
2 60468  97.3734 213.2123 0002993  17.1800 342.9543 15.32325709 96690
WARATAH SEED-1          
1 60469U 24149B   26133.83242012  .00008901  00000+0  26401-3 0  9995
2 60469  97.3694 214.3991 0001726  40.7740 319.3632 15.35056125 96849
PHISAT 2                
1 60470U 24149C   26133.46750347  .00004233  00000+0  14595-3 0  9996
2 60470  97.3761 212.8909 0002221  54.8389 305.3060 15.30541817 96688
LEMUR-2-TOMATOKECHUP    
1 60471U 24149D   26133.18063115  .00007264  00000+0  21432-3 0  9991
2 60471  97.3800 215.1595 0001956  50.5896 309.5521 15.35291192 96793
CONNECTA IOT-1          
1 60472U 24149E   26133.15137806  .00002648  00000+0  11472-3 0  9992
2 60472  97.3764 210.0409 0003235  66.4091 293.7485 15.23261189 96463
LOPEN                   
1 60473U 24149F   26133.47824797  .00009657  00000+0  25499-3 0  9991
2 60473  97.3781 216.6035 0002099  66.9924 293.1543 15.38661066 96921
