OBJECT_NAME,OBJECT_ID,EPOCH,MEAN_MOTION,ECCENTRICITY,INCLINATION,RA_OF_ASC_NODE,ARG_OF_PERICENTER,MEAN_ANOMALY,EPHEMERIS_TYPE,CLASSIFICATION_TYPE,NORAD_CAT_ID,ELEMENT_SET_NO,REV_AT_EPOCH,BSTAR,MEAN_MOTION_DOT,MEAN_MOTION_DDOT
MONITOR-2 (RS39S),2023-091U,2026-05-13T20:29:59.786016,15.18578367,.0010122,97.5098,192.3635,225.9041,134.1361,0,U,57184,999,15874,.15211E-3,.3079E-4,0
SVYATOBOR 1 (RS60S),2023-091X,2026-05-13T20:05:05.033184,15.26005378,.0009023,97.5112,197.4770,203.9014,156.1806,0,U,57187,999,15907,.22464E-3,.5708E-4,0
HORS 1,2023-091Y,2026-05-13T19:47:30.613632,15.26101362,.0008519,97.5092,197.2316,203.2911,156.7942,0,U,57188,999,15907,.2361E-3,.602E-4,0
VIZARD-METEO (RS38S),2023-091Z,2026-05-13T20:49:51.125376,15.34897409,.0007738,97.5111,202.6937,181.8069,178.3147,0,U,57189,999,15942,.32864E-3,.11053E-3,0
SITRO-AIS 6 (CHIRKIN),2023-091AC,2026-05-13T19:26:31.178112,15.25256289,.0010947,97.5090,196.6985,220.1831,139.8598,0,U,57192,999,15904,.15062E-3,.3718E-4,0
SITRO-AIS 8 (ANOKHIN),2023-091AD,2026-05-13T20:28:29.248320,15.31171890,.0010115,97.5079,198.8981,211.5083,148.5553,0,U,57193,999,15919,.2897E-3,.8658E-4,0
SITRO-AIS 7 (FARTUSHNIY),2023-091AE,2026-05-13T20:55:41.346912,15.24962606,.001077,97.5087,196.6030,221.1008,138.9419,0,U,57194,999,15904,.14868E-3,.3637E-4,0
AVION KALUGA 650,2023-091AF,2026-05-13T20:49:02.545248,15.19972794,.0009374,97.5114,193.5887,223.0690,136.9813,0,U,57195,999,15881,.16312E-3,.3444E-4,0
HORS 2,2023-091AG,2026-05-13T20:38:28.686336,15.30987251,.0008133,97.5110,200.4435,194.0641,166.0374,0,U,57196,999,15927,.3097E-3,.9204E-4,0
A-SEANSAT-PG1,2023-091AH,2026-05-13T19:35:19.890816,15.35727826,.0007523,97.5101,202.6954,189.8298,170.2799,0,U,57197,999,15943,.34496E-3,.11919E-3,0
SITRO-AIS 10 (BURDAEV),2023-091AK,2026-05-13T19:54:31.562208,15.37270244,.0007134,97.5101,203.5851,183.2151,176.9049,0,U,57199,999,15948,.34883E-3,.12668E-3,0
SITRO-AIS 9 (SHCHUKIN),2023-091AM,2026-05-13T20:17:29.914368,15.36818807,.0007331,97.5099,203.3573,183.9503,176.1684,0,U,57201,999,15947,.36081E-3,.12917E-3,0
UTMN 2 (RS27S),2023-091AP,2026-05-13T19:49:19.279776,15.31175699,.0008151,97.5108,200.5918,189.9635,170.1445,0,U,57203,999,15928,.2776E-3,.8289E-4,0
SITRO-AIS 12 (SMIRENNIY),2023-091AQ,2026-05-13T20:13:13.767744,15.37103409,.0007139,97.5111,203.8002,177.8865,182.2410,0,U,57204,999,15949,.35574E-3,.12851E-3,0
SITRO-AIS 11 (SHEFFER),2023-091AU,2026-05-13T20:45:40.943808,15.37495376,.0007075,97.5110,204.0489,177.5689,182.5590,0,U,57208,999,15951,.3689E-3,.13501E-3,0
H2SAT (HEINRICH HERTZ),2023-093A,2026-05-13T00:51:22.180032,1.00269416,.00006677,0.0126,253.6510,239.0446,111.6410,0,U,57213,999,1056,0,0,0
KUZGTU 1 (RS47S),2023-091AV,2026-05-13T19:35:26.268000,15.29043364,.0010538,97.5087,197.9653,209.9767,150.0870,0,U,57217,999,15912,.26957E-3,.7536E-4,0
QIANKUN-1,2023-103B,2026-05-13T12:02:09.639744,16.07700021,.002733,96.1623,180.7418,120.8761,239.5218,0,U,57422,999,16172,.1318E-3,.110894E-2,.71429E-5
FENGYUN 3F,2023-111A,2026-05-13T20:51:16.411680,14.19932776,.0001247,98.6843,204.5145,114.4388,245.6918,0,U,57490,999,14399,.28571E-4,.17E-6,0
HJ-2F,2023-116A,2026-05-13T20:51:20.081952,15.21817285,.0009622,97.3850,139.6991,151.3517,208.8249,0,U,57519,999,15353,.20232E-3,.453E-4,0
XRISM,2023-137A,2026-05-13T14:32:08.546208,15.12166514,.0007662,31.0019,223.5537,334.9283,25.0983,0,U,57800,999,14762,.16151E-3,.2954E-4,0
METEOR-M2 4,2024-039A,2026-05-13T20:33:19.759680,14.22425899,.0005912,98.6992,93.5905,270.1718,89.8782,0,U,59051,999,11438,.14717E-4,-.11E-6,0
GRBBETA,2024-128C,2026-05-12T23:23:57.016608,15.06341838,.00453026,61.9907,339.7812,127.3925,233.1305,0,U,60237,999,10096,.19345903E-3,.2703E-4,0
TRANSPORTER-11 OBJECT A,2024-149A,2026-05-13T03:46:55.260192,15.32325709,.00029936,97.3734,213.2123,17.1800,342.9543,0,U,60468,999,9669,.18430615E-3,.5674E-4,0
WARATAH SEED-1,2024-149B,2026-05-13T19:58:41.098368,15.35056125,.0001726,97.3694,214.3991,40.7740,319.3632,0,U,60469,999,9684,.26401E-3,.8901E-4,0
PHISAT 2,2024-149C,2026-05-13T11:13:12.299808,15.30541817,.0002221,97.3761,212.8909,54.8389,305.3060,0,U,60470,999,9668,.14595E-3,.4233E-4,0
LEMUR-2-TOMATOKECHUP,2024-149D,2026-05-13T04:20:06.531360,15.35291192,.00019565,97.3800,215.1595,50.5896,309.5521,0,U,60471,999,9679,.21431552E-3,.7264E-4,0
CONNECTA IOT-1,2024-149E,2026-05-13T03:37:59.064384,15.23261189,.0003235,97.3764,210.0409,66.4091,293.7485,0,U,60472,999,9646,.11471727E-3,.2648E-4,0
LOPEN,2024-149F,2026-05-13T11:28:40.624608,15.38661066,.0002099,97.3781,216.6035,66.9924,293.1543,0,U,60473,999,9692,.25499E-3,.9657E-4,0
